STARLINK-2234           
1 48580U 21041AD  24214.43677106 -.00000233  00000+0  32274-5 0  9991
2 48580  53.0544 213.9295 0001462  91.8820 268.2337 15.06395734177346
STARLINK-2235           
1 48581U 21041AE  24214.26446569  .00003088  00000+0  22611-3 0  9992
2 48581  53.0528 204.7034 0001572  79.2305 280.8860 15.06401196177462
STARLINK-2236           
1 48582U 21041AF  24214.71046681  .00001034  00000+0  88318-4 0  9990
2 48582  53.0540 202.8565 0001229  86.6228 273.4901 15.06401375177968
STARLINK-2237           
1 48583U 21041AG  24214.51647432  .00000969  00000+0  83950-4 0  9993
2 48583  53.0539 248.5619 0001331  80.6795 279.4344 15.06401026176869
STARLINK-2238           
1 48584U 21041AH  24214.42433114  .00001773  00000+0  13786-3 0  9997
2 48584  53.0533 248.9777 0000864  88.8909 271.2179 15.06397346176843
STARLINK-2240           
1 48585U 21041AJ  24214.50173662  .00001081  00000+0  91431-4 0  9992
2 48585  53.0522 248.6272 0001069  94.0785 266.0326 15.06408302176850
STARLINK-2241           
1 48586U 21041AK  24214.49436072 -.00001087  00000+0 -54103-4 0  9991
2 48586  53.0531 248.6619 0001361  93.3097 266.8047 15.06392452176855
STARLINK-2242           
1 48587U 21041AL  24214.49804740  .00001959  00000+0  15035-3 0  9999
2 48587  53.0527 248.6447 0001225  77.2266 282.8860 15.06399896176858
STARLINK-2244           
1 48588U 21041AM  24214.34785289  .00002223  00000+0  16808-3 0  9994
2 48588  53.0529 239.3581 0001349  87.2802 272.8341 15.06401917176975
STARLINK-2245           
1 48589U 21041AN  24214.34048285  .00004184  00000+0  29958-3 0  9991
2 48589  53.0529 239.3527 0001294  99.5734 260.5401 15.06402156176972
STARLINK-2249           
1 48592U 21041AR  24214.48701702  .00000933  00000+0  81536-4 0  9999
2 48592  53.0535 248.9279 0001281  85.7941 274.3194 15.06397041176851
STARLINK-2250           
1 48593U 21041AS  24214.47224236 -.00000773  00000+0 -32991-4 0  9996
2 48593  53.0532 248.7611 0001310  82.1319 277.9819 15.06396566176854
STARLINK-2251           
1 48594U 21041AT  24214.43447285  .00000116  00000+0  26663-4 0  9992
2 48594  53.0544 219.0184 0001314  74.4825 285.6309 15.06398021177279
STARLINK-2252           
1 48595U 21041AU  24214.52016125 -.00000053  00000+0  15302-4 0  9997
2 48595  53.0529 248.5437 0001297  88.9805 271.1333 15.06396527178131
STARLINK-2253           
1 48596U 21041AV  24214.54227985  .00001611  00000+0  12704-3 0  9990
2 48596  53.0528 248.4461 0001370  78.0284 282.0858 15.06401537177321
STARLINK-2255           
1 48597U 21041AW  24214.48330339  .00000174  00000+0  30581-4 0  9999
2 48597  53.0542 248.7121 0001253  92.5578 267.5555 15.06398482178126
STARLINK-2275           
1 48600U 21041AZ  24214.48422182 -.00000625  00000+0 -23059-4 0  9997
2 48600  53.0531 238.7070 0001232  90.1127 270.0003 15.06394867178267
STARLINK-2713           
1 48602U 21041BB  24214.74548537 -.00000173  00000+0  72621-5 0  9998
2 48602  53.0542 222.5351 0001184  92.8694 267.2430 15.06388820178510
STARLINK-2714           
1 48603U 21041BC  24214.39296965 -.00002030  00000+0 -11746-3 0  9999
2 48603  53.0535 219.1183 0001475  82.2561 277.8595 15.06391728178539
STARLINK-2757           
1 48604U 21041BD  24214.32848919  .00003129  00000+0  22886-3 0  9990
2 48604  53.0534 249.4054 0001371  89.9022 270.2124 15.06394587178107
STARLINK-2739           
1 48639U 21044B   24214.46533286 -.00000020  00000+0  17561-4 0  9997
2 48639  53.0540 223.7997 0001365  84.7294 275.3850 15.06395166175574
STARLINK-2736           
1 48640U 21044C   24214.45799782  .00000729  00000+0  67863-4 0  9998
2 48640  53.0539 224.1063 0001274  85.0396 275.0738 15.06397505175569
STARLINK-2754           
1 48641U 21044D   24214.33770823  .00000158  00000+0  29510-4 0  9994
2 48641  53.0544 229.3646 0001216  88.2120 271.9008 15.06394433175489
STARLINK-2646           
1 48642U 21044E   24214.41879836 -.00000321  00000+0 -26774-5 0  9992
2 48642  53.0533 229.0077 0001515  80.3188 279.7972 15.06396913175494
STARLINK-2704           
1 48643U 21044F   24214.46578177 -.00004645  00000+0 -29335-3 0  9999
2 48643  53.0524 228.7782 0001395  93.7324 266.3824 15.06375793175503
STARLINK-2695           
1 48644U 21044G   24214.46303021 -.00000205  00000+0  51222-5 0  9993
2 48644  53.0544 228.8004 0001245  98.4273 261.6857 15.06395086175504
STARLINK-2733           
1 48645U 21044H   24214.45937493 -.00003363  00000+0 -20717-3 0  9991
2 48645  53.0540 228.8171 0001319  98.5898 261.5241 15.06365949175503
STARLINK-2732           
1 48646U 21044J   24214.45564934 -.00001905  00000+0 -10908-3 0  9999
2 48646  53.0528 228.8345 0001192  88.9204 271.1921 15.06393208175507
STARLINK-2691           
1 48647U 21044K   24214.31928278  .00003861  00000+0  27793-3 0  9991
2 48647  53.0530 229.4461 0001112  93.8323 266.2793 15.06403027175486
STARLINK-2521           
1 48648U 21044L   24214.46673504 -.00000287  00000+0 -35054-6 0  9990
2 48648  53.0536 228.9502 0001175  88.6077 271.5047 15.06395463175508
STARLINK-2673           
1 48649U 21044M   24214.44828712  .00002424  00000+0  18155-3 0  9995
2 48649  53.0537 228.8681 0001274  91.4956 268.6179 15.06402077175496
STARLINK-2672           
1 48650U 21044N   24214.44459871  .00000760  00000+0  69897-4 0  9994
2 48650  53.0540 228.8855 0001534  91.5353 268.5811 15.06397482175491
STARLINK-2731           
1 48651U 21044P   24214.44091752  .00000521  00000+0  53889-4 0  9994
2 48651  53.0538 228.9004 0001281  92.8334 267.2801 15.06394268175492
STARLINK-2727           
1 48652U 21044Q   24214.76894149  .00008807  00000+0  60918-3 0  9996
2 48652  53.0523 227.4310 0001430  84.8995 275.2157 15.06414587176380
STARLINK-2720           
1 48653U 21044R   24214.43354259  .00000841  00000+0  75371-4 0  9994
2 48653  53.0535 228.9344 0001329  87.5979 272.5162 15.06396094175495
STARLINK-2651           
1 48654U 21044S   24214.42985750  .00001027  00000+0  87806-4 0  9993
2 48654  53.0538 228.9536 0001272  84.0423 276.0711 15.06399335175495
STARLINK-2657           
1 48655U 21044T   24214.35982180 -.00000085  00000+0  13176-4 0  9993
2 48655  53.0533 229.2671 0001364  91.2459 268.8686 15.06397330175488
STARLINK-2701           
1 48656U 21044U   24214.42248850 -.00000144  00000+0  92136-5 0  9991
2 48656  53.0540 228.9845 0001568  96.5657 263.5511 15.06395073175492
STARLINK-2734           
1 48657U 21044V   24214.45097959  .00000351  00000+0  42471-4 0  9992
2 48657  53.0537 228.5002 0001406  93.0705 267.0445 15.06397778175508
STARLINK-2647           
1 48658U 21044W   24214.48145964 -.00000011  00000+0  18147-4 0  9993
2 48658  53.0535 228.7182 0001261  82.3549 277.7583 15.06396514175502
STARLINK-2717           
1 48659U 21044X   24214.41142813  .00000858  00000+0  76477-4 0  9995
2 48659  53.0538 229.0310 0001320  89.0541 271.0599 15.06399121175494
STARLINK-2688           
1 48660U 21044Y   24214.47408781 -.00000132  00000+0  10035-4 0  9996
2 48660  53.0531 228.7570 0001080  87.4359 272.6753 15.06393832175509
STARLINK-2726           
1 48662U 21044AA  24214.73671532  .00002256  00000+0  17029-3 0  9990
2 48662  53.0539 217.5740 0001394  90.7288 269.3861 15.06400206176520
STARLINK-2667           
1 48663U 21044AB  24214.33494736  .00000457  00000+0  49550-4 0  9992
2 48663  53.0536 219.3752 0001329  79.1118 281.0020 15.06396889175621
STARLINK-2709           
1 48664U 21044AC  24214.72934039  .00000475  00000+0  50806-4 0  9997
2 48664  53.0544 217.6077 0001364  86.1304 273.9841 15.06395469176586
STARLINK-2666           
1 48666U 21044AE  24214.42344155  .00007369  00000+0  51268-3 0  9991
2 48666  53.0529 219.4475 0001737 105.4488 254.6692 15.06430024175626
STARLINK-2735           
1 48667U 21044AF  24214.39391190  .00001963  00000+0  15062-3 0  9995
2 48667  53.0533 219.1131 0001376  84.1857 275.9289 15.06403338175637
STARLINK-2738           
1 48668U 21044AG  24214.39023502  .00000902  00000+0  79437-4 0  9994
2 48668  53.0533 219.1265 0001267  87.9018 272.2116 15.06394315175638
STARLINK-2707           
1 48669U 21044AH  24214.38654753  .00000832  00000+0  74757-4 0  9994
2 48669  53.0545 219.1466 0001372  87.6752 272.4394 15.06395103175629
STARLINK-2763           
1 48670U 21044AJ  24214.44920190 -.00000089  00000+0  12927-4 0  9990
2 48670  53.0537 218.8646 0001427  92.0408 268.0744 15.06396521175633
STARLINK-2745           
1 48671U 21044AK  24214.34235956  .00001752  00000+0  13647-3 0  9995
2 48671  53.0539 219.6533 0001359  90.1347 269.9798 15.06394622175612
STARLINK-2705           
1 48672U 21044AL  24214.30914148  .00000577  00000+0  57633-4 0  9997
2 48672  53.0527 219.4897 0001290  91.3280 268.7856 15.06393871175611
STARLINK-2711           
1 48673U 21044AM  24214.43814968  .00000073  00000+0  23771-4 0  9998
2 48673  53.0537 218.9129 0001264  90.3932 269.7201 15.06393552175632
STARLINK-2712           
1 48674U 21044AN  24214.31284352  .00000475  00000+0  50804-4 0  9997
2 48674  53.0543 219.5914 0001348  90.5984 269.5159 15.06394197175615
STARLINK-2737           
1 48675U 21044AP  24214.29808084 -.00000077  00000+0  13714-4 0  9997
2 48675  53.0537 219.5402 0001241  98.2708 261.8422 15.06394507175615
STARLINK-2746           
1 48676U 21044AQ  24214.29439880  .00000443  00000+0  48624-4 0  9996
2 48676  53.0543 219.5589 0001307  94.0271 266.0867 15.06393413175616
STARLINK-2719           
1 48677U 21044AR  24214.58335648  .01382452  00000+0  17526-1 0  9994
2 48677  53.0510 210.9621 0001159  89.1598 198.3229 15.56005249  5911
STARLINK-2615           
1 48678U 21044AS  24214.28702638  .00002453  00000+0  18351-3 0  9997
2 48678  53.0541 219.5891 0001359 100.3101 259.8041 15.06401402175614
STARLINK-2648           
1 48679U 21044AT  24214.41603777  .00000671  00000+0  63961-4 0  9995
2 48679  53.0537 219.0124 0001345  91.5770 268.5374 15.06393865175633
